start=new Date('2023-04-20T00:00:00.000Z').valueOf();
sats=[{"REV_AT_EPOCH":"4211","ECCENTRICITY":"0.00008320","TIME_SYSTEM":"UTC","MEAN_ELEMENT_THEORY":"SGP4","CLASSIFICATION_TYPE":"U","OBJECT_ID":"2022-083AK","PERIOD":"95.435","INCLINATION":"53.2151","DECAY_DATE":null,"BSTAR":"0.00058964000000","OBJECT_NAME":"STARLINK-4090","ARG_OF_PERICENTER":"123.6672","COUNTRY_CODE":"US","REF_FRAME":"TEME","RA_OF_ASC_NODE":"219.6354","EPOCH":"2023-04-19T19:31:22.032480","FILE":"3890520","CENTER_NAME":"EARTH","SEMIMAJOR_AXIS":"6917.735","ELEMENT_SET_NO":"999","MEAN_ANOMALY":"236.4399","NORAD_CAT_ID":"53165","GP_ID":"230396609","TLE_LINE1":"1 53165U 22083AK  23109.81344945  .00009121  00000-0  58964-3 0  9996","OBJECT_TYPE":"PAYLOAD","LAUNCH_DATE":"2022-07-17","APOAPSIS":"540.176","MEAN_MOTION_DOT":"0.00009121","TLE_LINE2":"2 53165  53.2151 219.6354 0000832 123.6672 236.4399 15.08887445 42113","MEAN_MOTION_DDOT":"0.0000000000000","PERIAPSIS":"539.025","EPHEMERIS_TYPE":"0","RCS_SIZE":"LARGE","SITE":"AFETR","MEAN_MOTION":"15.08887445"},{"DECAY_DATE":null,"INCLINATION":"53.2164","CLASSIFICATION_TYPE":"U","OBJECT_ID":"2022-083AL","PERIOD":"95.437","ECCENTRICITY":"0.00011590","TIME_SYSTEM":"UTC","MEAN_ELEMENT_THEORY":"SGP4","REV_AT_EPOCH":"4208","OBJECT_NAME":"STARLINK-4110","BSTAR":"0.00017138000000","RA_OF_ASC_NODE":"220.5000","REF_FRAME":"TEME","ARG_OF_PERICENTER":"79.6624","COUNTRY_CODE":"US","EPOCH":"2023-04-19T14:55:51.346848","FILE":"3890520","ELEMENT_SET_NO":"999","MEAN_ANOMALY":"280.4499","SEMIMAJOR_AXIS":"6917.860","CENTER_NAME":"EARTH","GP_ID":"230395357","TLE_LINE1":"1 53166U 22083AL  23109.62212207  .00002441  00000-0  17138-3 0  9997","OBJECT_TYPE":"PAYLOAD","NORAD_CAT_ID":"53166","MEAN_MOTION_DDOT":"0.0000000000000","TLE_LINE2":"2 53166  53.2164 220.5000 0001159  79.6624 280.4499 15.08846562 42088","MEAN_MOTION_DOT":"0.00002441","APOAPSIS":"540.527","LAUNCH_DATE":"2022-07-17","MEAN_MOTION":"15.08846562","SITE":"AFETR","PERIAPSIS":"538.924","EPHEMERIS_TYPE":"0","RCS_SIZE":"LARGE"},{"MEAN_MOTION":"15.08845008","SITE":"AFETR","PERIAPSIS":"538.674","EPHEMERIS_TYPE":"0","RCS_SIZE":"LARGE","MEAN_MOTION_DDOT":"0.0000000000000","TLE_LINE2":"2 53167  53.2179 206.0401 0001527  87.9501 272.1666 15.08845008 42262","MEAN_MOTION_DOT":"0.00000299","APOAPSIS":"540.786","LAUNCH_DATE":"2022-07-17","GP_ID":"230395107","TLE_LINE1":"1 53167U 22083AM  23109.50021825  .00000299  00000-0  36906-4 0  9993","OBJECT_TYPE":"PAYLOAD","NORAD_CAT_ID":"53167","ELEMENT_SET_NO":"999","MEAN_ANOMALY":"272.1666","SEMIMAJOR_AXIS":"6917.865","CENTER_NAME":"EARTH","EPOCH":"2023-04-19T12:00:18.856800","FILE":"3890520","RA_OF_ASC_NODE":"206.0401","REF_FRAME":"TEME","COUNTRY_CODE":"US","ARG_OF_PERICENTER":"87.9501","OBJECT_NAME":"STARLINK-3683","BSTAR":"0.00003690600000","INCLINATION":"53.2179","DECAY_DATE":null,"CLASSIFICATION_TYPE":"U","OBJECT_ID":"2022-083AM","PERIOD":"95.437","TIME_SYSTEM":"UTC","ECCENTRICITY":"0.00015270","MEAN_ELEMENT_THEORY":"SGP4","REV_AT_EPOCH":"4226"},{"TLE_LINE2":"2 53168  53.2157 219.6225 0000839 103.1124 256.9962 15.08862111 42117","MEAN_MOTION_DOT":"0.00004681","MEAN_MOTION_DDOT":"0.0000000000000","LAUNCH_DATE":"2022-07-17","APOAPSIS":"540.258","SITE":"AFETR","MEAN_MOTION":"15.08862111","RCS_SIZE":"LARGE","EPHEMERIS_TYPE":"0","PERIAPSIS":"539.097","SEMIMAJOR_AXIS":"6917.813","MEAN_ANOMALY":"256.9962","ELEMENT_SET_NO":"999","CENTER_NAME":"EARTH","OBJECT_TYPE":"PAYLOAD","GP_ID":"230396359","TLE_LINE1":"1 53168U 22083AN  23109.81714972  .00004681  00000-0  31178-3 0  9994","NORAD_CAT_ID":"53168","RA_OF_ASC_NODE":"219.6225","ARG_OF_PERICENTER":"103.1124","COUNTRY_CODE":"US","REF_FRAME":"TEME","FILE":"3890520","EPOCH":"2023-04-19T19:36:41.735808","PERIOD":"95.436","OBJECT_ID":"2022-083AN","CLASSIFICATION_TYPE":"U","DECAY_DATE":null,"INCLINATION":"53.2157","REV_AT_EPOCH":"4211","MEAN_ELEMENT_THEORY":"SGP4","ECCENTRICITY":"0.00008390","TIME_SYSTEM":"UTC","BSTAR":"0.00031178000000","OBJECT_NAME":"STARLINK-4105"},{"MEAN_MOTION_DOT":"0.00001660","TLE_LINE2":"2 53169  53.2176 205.6657 0001285  94.8719 265.2420 15.08841021 42271","MEAN_MOTION_DDOT":"0.0000000000000","LAUNCH_DATE":"2022-07-17","APOAPSIS":"540.631","SITE":"AFETR","MEAN_MOTION":"15.08841021","PERIAPSIS":"538.853","EPHEMERIS_TYPE":"0","RCS_SIZE":"LARGE","SEMIMAJOR_AXIS":"6917.877","ELEMENT_SET_NO":"999","MEAN_ANOMALY":"265.2420","CENTER_NAME":"EARTH","GP_ID":"230396109","TLE_LINE1":"1 53169U 22083AP  23109.58581637  .00001660  00000-0  12238-3 0  9999","OBJECT_TYPE":"PAYLOAD","NORAD_CAT_ID":"53169","RA_OF_ASC_NODE":"205.6657","COUNTRY_CODE":"US","ARG_OF_PERICENTER":"94.8719","REF_FRAME":"TEME","EPOCH":"2023-04-19T14:03:34.534368","FILE":"3890520","CLASSIFICATION_TYPE":"U","OBJECT_ID":"2022-083AP","PERIOD":"95.437","DECAY_DATE":null,"INCLINATION":"53.2176","REV_AT_EPOCH":"4227","TIME_SYSTEM":"UTC","ECCENTRICITY":"0.00012850","MEAN_ELEMENT_THEORY":"SGP4","BSTAR":"0.00012238000000","OBJECT_NAME":"STARLINK-4117"},{"BSTAR":"0.00099548000000","OBJECT_NAME":"STARLINK-4095","REV_AT_EPOCH":"4214","TIME_SYSTEM":"UTC","ECCENTRICITY":"0.00011980","MEAN_ELEMENT_THEORY":"SGP4","OBJECT_ID":"2022-083AQ","CLASSIFICATION_TYPE":"U","PERIOD":"95.435","DECAY_DATE":null,"INCLINATION":"53.2153","EPOCH":"2023-04-19T13:55:34.680000","FILE":"3890520","ARG_OF_PERICENTER":"103.8490","COUNTRY_CODE":"US","REF_FRAME":"TEME","RA_OF_ASC_NODE":"215.6413","NORAD_CAT_ID":"53170","GP_ID":"230394858","TLE_LINE1":"1 53170U 22083AQ  23109.58026250  .00015605  00000-0  99548-3 0  9999","OBJECT_TYPE":"PAYLOAD","CENTER_NAME":"EARTH","SEMIMAJOR_AXIS":"6917.780","ELEMENT_SET_NO":"999","MEAN_ANOMALY":"256.2635","PERIAPSIS":"538.816","EPHEMERIS_TYPE":"0","RCS_SIZE":"LARGE","SITE":"AFETR","MEAN_MOTION":"15.08872867","LAUNCH_DATE":"2022-07-17","APOAPSIS":"540.474","MEAN_MOTION_DOT":"0.00015605","TLE_LINE2":"2 53170  53.2153 215.6413 0001198 103.8490 256.2635 15.08872867 42145","MEAN_MOTION_DDOT":"0.0000000000000"},{"EPOCH":"2023-04-19T11:43:43.458816","FILE":"3890520","REF_FRAME":"TEME","COUNTRY_CODE":"US","ARG_OF_PERICENTER":"58.4887","RA_OF_ASC_NODE":"190.8647","OBJECT_NAME":"STARLINK-4052","BSTAR":"0.00016517000000","TIME_SYSTEM":"UTC","ECCENTRICITY":"0.00017450","MEAN_ELEMENT_THEORY":"SGP4","REV_AT_EPOCH":"4247","INCLINATION":"53.2160","DECAY_DATE":null,"OBJECT_ID":"2022-083AR","CLASSIFICATION_TYPE":"U","PERIOD":"95.437","PERIAPSIS":"538.517","EPHEMERIS_TYPE":"0","RCS_SIZE":"LARGE","MEAN_MOTION":"15.08846860","SITE":"AFETR","APOAPSIS":"540.932","LAUNCH_DATE":"2022-07-17","MEAN_MOTION_DDOT":"0.0000000000000","MEAN_MOTION_DOT":"0.00002342","TLE_LINE2":"2 53171  53.2160 190.8647 0001745  58.4887 301.6275 15.08846860 42475","NORAD_CAT_ID":"53171","GP_ID":"230395608","TLE_LINE1":"1 53171U 22083AR  23109.48869744  .00002342  00000-0  16517-3 0  9991","OBJECT_TYPE":"PAYLOAD","CENTER_NAME":"EARTH","ELEMENT_SET_NO":"999","MEAN_ANOMALY":"301.6275","SEMIMAJOR_AXIS":"6917.859"},{"EPHEMERIS_TYPE":"0","RCS_SIZE":"LARGE","PERIAPSIS":"538.722","MEAN_MOTION":"15.08844268","SITE":"AFETR","APOAPSIS":"540.743","LAUNCH_DATE":"2022-07-17","MEAN_MOTION_DDOT":"0.0000000000000","MEAN_MOTION_DOT":"0.00004381","TLE_LINE2":"2 53172  53.2151 215.9366 0001461  74.5125 285.6028 15.08844268 42121","NORAD_CAT_ID":"53172","OBJECT_TYPE":"PAYLOAD","TLE_LINE1":"1 53172U 22083AS  23109.50665497  .00004381  00000-0  29312-3 0  9996","GP_ID":"230395859","CENTER_NAME":"EARTH","MEAN_ANOMALY":"285.6028","ELEMENT_SET_NO":"999","SEMIMAJOR_AXIS":"6917.867","FILE":"3890520","EPOCH":"2023-04-19T12:09:34.989408","REF_FRAME":"TEME","ARG_OF_PERICENTER":"74.5125","COUNTRY_CODE":"US","RA_OF_ASC_NODE":"215.9366","OBJECT_NAME":"STARLINK-4299","BSTAR":"0.00029312000000","MEAN_ELEMENT_THEORY":"SGP4","TIME_SYSTEM":"UTC","ECCENTRICITY":"0.00014610","REV_AT_EPOCH":"4212","DECAY_DATE":null,"INCLINATION":"53.2151","PERIOD":"95.437","OBJECT_ID":"2022-083AS","CLASSIFICATION_TYPE":"U"},{"REF_FRAME":"TEME","ARG_OF_PERICENTER":"121.4921","COUNTRY_CODE":"US","RA_OF_ASC_NODE":"195.0262","EPOCH":"2023-04-19T17:24:54.835488","FILE":"3890520","ECCENTRICITY":"0.00013400","TIME_SYSTEM":"UTC","MEAN_ELEMENT_THEORY":"SGP4","REV_AT_EPOCH":"4243","INCLINATION":"53.2165","DECAY_DATE":null,"CLASSIFICATION_TYPE":"U","OBJECT_ID":"2022-083AT","PERIOD":"95.438","OBJECT_NAME":"STARLINK-4300","BSTAR":"-0.00010056000000","APOAPSIS":"540.713","LAUNCH_DATE":"2022-07-17","MEAN_MOTION_DDOT":"0.0000000000000","TLE_LINE2":"2 53173  53.2165 195.0262 0001340 121.4921 238.6203 15.08826698 42436","MEAN_MOTION_DOT":"-0.00001887","PERIAPSIS":"538.859","RCS_SIZE":"LARGE","EPHEMERIS_TYPE":"0","MEAN_MOTION":"15.08826698","SITE":"AFETR","CENTER_NAME":"EARTH","ELEMENT_SET_NO":"999","MEAN_ANOMALY":"238.6203","SEMIMAJOR_AXIS":"6917.921","NORAD_CAT_ID":"53173","GP_ID":"230396610","TLE_LINE1":"1 53173U 22083AT  23109.72563467 -.00001887  00000-0 -10056-3 0  9990","OBJECT_TYPE":"PAYLOAD"},{"OBJECT_TYPE":"PAYLOAD","TLE_LINE1":"1 53174U 22083AU  23109.55495727  .00005390  00000-0  35630-3 0  9991","GP_ID":"230395358","NORAD_CAT_ID":"53174","SEMIMAJOR_AXIS":"6917.825","MEAN_ANOMALY":"276.1758","ELEMENT_SET_NO":"999","CENTER_NAME":"EARTH","SITE":"AFETR","MEAN_MOTION":"15.08857981","EPHEMERIS_TYPE":"0","RCS_SIZE":"LARGE","PERIAPSIS":"538.853","TLE_LINE2":"2 53174  53.2164 230.7999 0001211  83.9372 276.1758 15.08857981 41923","MEAN_MOTION_DOT":"0.00005390","MEAN_MOTION_DDOT":"0.0000000000000","LAUNCH_DATE":"2022-07-17","APOAPSIS":"540.528","BSTAR":"0.00035630000000","OBJECT_NAME":"STARLINK-4205","PERIOD":"95.436","OBJECT_ID":"2022-083AU","CLASSIFICATION_TYPE":"U","INCLINATION":"53.2164","DECAY_DATE":null,"REV_AT_EPOCH":"4192","MEAN_ELEMENT_THEORY":"SGP4","TIME_SYSTEM":"UTC","ECCENTRICITY":"0.00012110","FILE":"3890520","EPOCH":"2023-04-19T13:19:08.308128","RA_OF_ASC_NODE":"230.7999","ARG_OF_PERICENTER":"83.9372","COUNTRY_CODE":"US","REF_FRAME":"TEME"}];
